{
 "generated_at": "2026-06-18T09:14:20Z",
 "sources": [
  {
   "name": "CelesTrak",
   "url": "https://celestrak.org/NORAD/elements/",
   "license": "frei verfügbar; Attribution. Ursprünglich USSPACECOM/Space-Track."
  },
  {
   "name": "GCAT (J. McDowell, planet4589.org)",
   "url": "https://planet4589.org/space/gcat/",
   "license": "CC-BY 4.0"
  }
 ],
 "satellites": [
  {
   "norad": 60547,
   "name": "UMBRA-10",
   "intl": "2024-149CH",
   "group": "sar",
   "gcat": {
    "class": "B",
    "category": "IMG-R",
    "owner": "UMBRA",
    "state": "US"
   },
   "omm": {
    "OBJECT_NAME": "UMBRA-10",
    "OBJECT_ID": "2024-149CH",
    "EPOCH": "2026-06-17T19:00:35.469216",
    "MEAN_MOTION": 15.18057093,
    "ECCENTRICITY": 0.00004364,
    "INCLINATION": 97.698,
    "RA_OF_ASC_NODE": 256.0355,
    "ARG_OF_PERICENTER": 73.6877,
    "MEAN_ANOMALY": 286.4404,
    "EPHEMERIS_TYPE": 0,
    "CLASSIFICATION_TYPE": "U",
    "NORAD_CAT_ID": 60547,
    "ELEMENT_SET_NO": 999,
    "REV_AT_EPOCH": 10082,
    "BSTAR": 0.00065492795,
    "MEAN_MOTION_DOT": 0.00013282,
    "MEAN_MOTION_DDOT": 0
   }
  },
  {
   "norad": 66748,
   "name": "UMBRA-11",
   "intl": "2025-276CL",
   "group": "sar",
   "gcat": {
    "class": "B",
    "category": "IMG-R",
    "owner": "UMBRA",
    "state": "US"
   },
   "omm": {
    "OBJECT_NAME": "UMBRA-11",
    "OBJECT_ID": "2025-276CL",
    "EPOCH": "2026-06-17T18:44:42.427104",
    "MEAN_MOTION": 15.26739807,
    "ECCENTRICITY": 0.00009053,
    "INCLINATION": 97.4195,
    "RA_OF_ASC_NODE": 243.4074,
    "ARG_OF_PERICENTER": 352.6869,
    "MEAN_ANOMALY": 7.4356,
    "EPHEMERIS_TYPE": 0,
    "CLASSIFICATION_TYPE": "U",
    "NORAD_CAT_ID": 66748,
    "ELEMENT_SET_NO": 999,
    "REV_AT_EPOCH": 3058,
    "BSTAR": 0.00063903818,
    "MEAN_MOTION_DOT": 0.0001675,
    "MEAN_MOTION_DDOT": 0
   }
  },
  {
   "norad": 67371,
   "name": "UMBRA-12",
   "intl": "2026-004J",
   "group": "sar",
   "gcat": {
    "class": "B",
    "category": "IMG-R",
    "owner": "UMBRA",
    "state": "US"
   },
   "omm": {
    "OBJECT_NAME": "UMBRA-12",
    "OBJECT_ID": "2026-004J",
    "EPOCH": "2026-06-17T12:14:48.188544",
    "MEAN_MOTION": 14.89319769,
    "ECCENTRICITY": 0.00075781,
    "INCLINATION": 97.801,
    "RA_OF_ASC_NODE": 167.2757,
    "ARG_OF_PERICENTER": 123.1287,
    "MEAN_ANOMALY": 237.0659,
    "EPHEMERIS_TYPE": 0,
    "CLASSIFICATION_TYPE": "U",
    "NORAD_CAT_ID": 67371,
    "ELEMENT_SET_NO": 999,
    "REV_AT_EPOCH": 2335,
    "BSTAR": 0.00031870825,
    "MEAN_MOTION_DOT": 0.00002968,
    "MEAN_MOTION_DDOT": 0
   }
  },
  {
   "norad": 39160,
   "name": "VNREDSAT 1",
   "intl": "2013-021B",
   "group": "resource",
   "gcat": {
    "class": "C",
    "category": "IMG",
    "owner": "VAST",
    "state": "VN"
   },
   "omm": {
    "OBJECT_NAME": "VNREDSAT 1",
    "OBJECT_ID": "2013-021B",
    "EPOCH": "2026-06-17T23:26:53.493792",
    "MEAN_MOTION": 14.64856885,
    "ECCENTRICITY": 0.00017395,
    "INCLINATION": 97.9077,
    "RA_OF_ASC_NODE": 222.3632,
    "ARG_OF_PERICENTER": 87.9366,
    "MEAN_ANOMALY": 272.2037,
    "EPHEMERIS_TYPE": 0,
    "CLASSIFICATION_TYPE": "U",
    "NORAD_CAT_ID": 39160,
    "ELEMENT_SET_NO": 999,
    "REV_AT_EPOCH": 70040,
    "BSTAR": 0.000058349308,
    "MEAN_MOTION_DOT": 0.00000266,
    "MEAN_MOTION_DDOT": 0
   }
  },
  {
   "norad": 32060,
   "name": "WORLDVIEW-1 (WV-1)",
   "intl": "2007-041A",
   "group": "resource",
   "gcat": {
    "class": "B",
    "category": "IMG",
    "owner": "DGLO",
    "state": "US"
   },
   "omm": {
    "OBJECT_NAME": "WORLDVIEW-1 (WV-1)",
    "OBJECT_ID": "2007-041A",
    "EPOCH": "2026-06-17T22:45:54.046080",
    "MEAN_MOTION": 15.24273981,
    "ECCENTRICITY": 0.00021809,
    "INCLINATION": 97.3882,
    "RA_OF_ASC_NODE": 288.6809,
    "ARG_OF_PERICENTER": 19.5093,
    "MEAN_ANOMALY": 340.6227,
    "EPHEMERIS_TYPE": 0,
    "CLASSIFICATION_TYPE": "U",
    "NORAD_CAT_ID": 32060,
    "ELEMENT_SET_NO": 999,
    "REV_AT_EPOCH": 4299,
    "BSTAR": 0.00020571688,
    "MEAN_MOTION_DOT": 0.00004952,
    "MEAN_MOTION_DDOT": 0
   }
  },
  {
   "norad": 35946,
   "name": "WORLDVIEW-2 (WV-2)",
   "intl": "2009-055A",
   "group": "resource",
   "gcat": {
    "class": "B",
    "category": "IMG",
    "owner": "DGLO",
    "state": "US"
   },
   "omm": {
    "OBJECT_NAME": "WORLDVIEW-2 (WV-2)",
    "OBJECT_ID": "2009-055A",
    "EPOCH": "2026-06-17T22:18:06.758496",
    "MEAN_MOTION": 14.3789961,
    "ECCENTRICITY": 0.00037508,
    "INCLINATION": 98.4737,
    "RA_OF_ASC_NODE": 242.3686,
    "ARG_OF_PERICENTER": 205.4685,
    "MEAN_ANOMALY": 154.6318,
    "EPHEMERIS_TYPE": 0,
    "CLASSIFICATION_TYPE": "U",
    "NORAD_CAT_ID": 35946,
    "ELEMENT_SET_NO": 999,
    "REV_AT_EPOCH": 87575,
    "BSTAR": 0.00004363521,
    "MEAN_MOTION_DOT": 8.8e-7,
    "MEAN_MOTION_DDOT": 0
   }
  },
  {
   "norad": 40115,
   "name": "WORLDVIEW-3 (WV-3)",
   "intl": "2014-048A",
   "group": "resource",
   "gcat": {
    "class": "B",
    "category": "IMG",
    "owner": "DGLO",
    "state": "US"
   },
   "omm": {
    "OBJECT_NAME": "WORLDVIEW-3 (WV-3)",
    "OBJECT_ID": "2014-048A",
    "EPOCH": "2026-06-17T21:48:18.516960",
    "MEAN_MOTION": 14.85022988,
    "ECCENTRICITY": 0.00009263,
    "INCLINATION": 97.8567,
    "RA_OF_ASC_NODE": 243.7315,
    "ARG_OF_PERICENTER": 24.9889,
    "MEAN_ANOMALY": 335.1371,
    "EPHEMERIS_TYPE": 0,
    "CLASSIFICATION_TYPE": "U",
    "NORAD_CAT_ID": 40115,
    "ELEMENT_SET_NO": 999,
    "REV_AT_EPOCH": 64201,
    "BSTAR": 0.000084340239,
    "MEAN_MOTION_DOT": 0.00000666,
    "MEAN_MOTION_DDOT": 0
   }
  },
  {
   "norad": 36834,
   "name": "YAOGAN-10",
   "intl": "2010-038A",
   "group": "resource",
   "gcat": {
    "class": null,
    "category": null,
    "owner": null,
    "state": null
   },
   "omm": {
    "OBJECT_NAME": "YAOGAN-10",
    "OBJECT_ID": "2010-038A",
    "EPOCH": "2026-06-17T23:06:31.465152",
    "MEAN_MOTION": 14.85349572,
    "ECCENTRICITY": 0.00016582,
    "INCLINATION": 97.8968,
    "RA_OF_ASC_NODE": 192.3605,
    "ARG_OF_PERICENTER": 87.4282,
    "MEAN_ANOMALY": 2.5992,
    "EPHEMERIS_TYPE": 0,
    "CLASSIFICATION_TYPE": "U",
    "NORAD_CAT_ID": 36834,
    "ELEMENT_SET_NO": 999,
    "REV_AT_EPOCH": 85732,
    "BSTAR": 0.00013397557,
    "MEAN_MOTION_DOT": 0.00001098,
    "MEAN_MOTION_DDOT": 0
   }
  },
  {
   "norad": 40143,
   "name": "YAOGAN-21",
   "intl": "2014-053A",
   "group": "resource",
   "gcat": {
    "class": "D",
    "category": "IMG",
    "owner": "ZZB",
    "state": "CN"
   },
   "omm": {
    "OBJECT_NAME": "YAOGAN-21",
    "OBJECT_ID": "2014-053A",
    "EPOCH": "2026-06-17T22:46:58.888416",
    "MEAN_MOTION": 15.26381694,
    "ECCENTRICITY": 0.00100115,
    "INCLINATION": 97.1468,
    "RA_OF_ASC_NODE": 209.1517,
    "ARG_OF_PERICENTER": 91.5865,
    "MEAN_ANOMALY": 268.6521,
    "EPHEMERIS_TYPE": 0,
    "CLASSIFICATION_TYPE": "U",
    "NORAD_CAT_ID": 40143,
    "ELEMENT_SET_NO": 999,
    "REV_AT_EPOCH": 65507,
    "BSTAR": 0.0001844336,
    "MEAN_MOTION_DOT": 0.00004734,
    "MEAN_MOTION_DDOT": 0
   }
  },
  {
   "norad": 40275,
   "name": "YAOGAN-22",
   "intl": "2014-063A",
   "group": "resource",
   "gcat": {
    "class": null,
    "category": null,
    "owner": null,
    "state": null
   },
   "omm": {
    "OBJECT_NAME": "YAOGAN-22",
    "OBJECT_ID": "2014-063A",
    "EPOCH": "2026-06-17T20:53:00.755232",
    "MEAN_MOTION": 13.15531055,
    "ECCENTRICITY": 0.00063563,
    "INCLINATION": 100.7725,
    "RA_OF_ASC_NODE": 320.1547,
    "ARG_OF_PERICENTER": 183.7268,
    "MEAN_ANOMALY": 176.3797,
    "EPHEMERIS_TYPE": 0,
    "CLASSIFICATION_TYPE": "U",
    "NORAD_CAT_ID": 40275,
    "ELEMENT_SET_NO": 999,
    "REV_AT_EPOCH": 55990,
    "BSTAR": -0.000042663167,
    "MEAN_MOTION_DOT": -6.3e-7,
    "MEAN_MOTION_DDOT": 0
   }
  },
  {
   "norad": 40310,
   "name": "YAOGAN-24",
   "intl": "2014-072A",
   "group": "resource",
   "gcat": {
    "class": "D",
    "category": "IMG",
    "owner": "ZZB",
    "state": "CN"
   },
   "omm": {
    "OBJECT_NAME": "YAOGAN-24",
    "OBJECT_ID": "2014-072A",
    "EPOCH": "2026-06-17T23:07:05.145600",
    "MEAN_MOTION": 14.76224522,
    "ECCENTRICITY": 0.00125213,
    "INCLINATION": 98.1493,
    "RA_OF_ASC_NODE": 306.3076,
    "ARG_OF_PERICENTER": 261.001,
    "MEAN_ANOMALY": 98.9782,
    "EPHEMERIS_TYPE": 0,
    "CLASSIFICATION_TYPE": "U",
    "NORAD_CAT_ID": 40310,
    "ELEMENT_SET_NO": 999,
    "REV_AT_EPOCH": 62383,
    "BSTAR": 0.00011322936,
    "MEAN_MOTION_DOT": 0.00000731,
    "MEAN_MOTION_DDOT": 0
   }
  },
  {
   "norad": 40362,
   "name": "YAOGAN-26",
   "intl": "2014-088A",
   "group": "resource",
   "gcat": {
    "class": "D",
    "category": "IMG",
    "owner": "ZZB",
    "state": "CN"
   },
   "omm": {
    "OBJECT_NAME": "YAOGAN-26",
    "OBJECT_ID": "2014-088A",
    "EPOCH": "2026-06-17T23:22:56.189280",
    "MEAN_MOTION": 15.47373751,
    "ECCENTRICITY": 0.00059258,
    "INCLINATION": 97.0643,
    "RA_OF_ASC_NODE": 169.1643,
    "ARG_OF_PERICENTER": 66.2924,
    "MEAN_ANOMALY": 293.8948,
    "EPHEMERIS_TYPE": 0,
    "CLASSIFICATION_TYPE": "U",
    "NORAD_CAT_ID": 40362,
    "ELEMENT_SET_NO": 999,
    "REV_AT_EPOCH": 63782,
    "BSTAR": 0.00029471269,
    "MEAN_MOTION_DOT": 0.00015002,
    "MEAN_MOTION_DDOT": 0
   }
  },
  {
   "norad": 40878,
   "name": "YAOGAN-27",
   "intl": "2015-040A",
   "group": "resource",
   "gcat": {
    "class": "D",
    "category": "IMG",
    "owner": "ZZB",
    "state": "CN"
   },
   "omm": {
    "OBJECT_NAME": "YAOGAN-27",
    "OBJECT_ID": "2015-040A",
    "EPOCH": "2026-06-17T22:34:46.080768",
    "MEAN_MOTION": 13.1607012,
    "ECCENTRICITY": 0.00076823,
    "INCLINATION": 100.1148,
    "RA_OF_ASC_NODE": 155.2908,
    "ARG_OF_PERICENTER": 208.589,
    "MEAN_ANOMALY": 151.4804,
    "EPHEMERIS_TYPE": 0,
    "CLASSIFICATION_TYPE": "U",
    "NORAD_CAT_ID": 40878,
    "ELEMENT_SET_NO": 999,
    "REV_AT_EPOCH": 51776,
    "BSTAR": 0.00056166976,
    "MEAN_MOTION_DOT": 0.00000171,
    "MEAN_MOTION_DDOT": 0
   }
  }
 ]
}
